start=new Date('2023-01-23T00:00:00.000Z').valueOf();
sats=[{"FILE":"3757474","ECCENTRICITY":"0.00013460","GP_ID":"223584931","MEAN_MOTION":"15.08890451","MEAN_ANOMALY":"261.6693","ELEMENT_SET_NO":"999","LAUNCH_DATE":"2022-07-24","ARG_OF_PERICENTER":"98.4452","BSTAR":"0.00203520000000","REF_FRAME":"TEME","CLASSIFICATION_TYPE":"U","NORAD_CAT_ID":"53254","MEAN_MOTION_DDOT":"0.0000000000000","CENTER_NAME":"EARTH","TLE_LINE2":"2 53254  53.2145 286.2481 0001346  98.4452 261.6693 15.08890451 28293","SEMIMAJOR_AXIS":"6917.726","EPOCH":"2023-01-21T11:14:42.191232","MEAN_ELEMENT_THEORY":"SGP4","INCLINATION":"53.2145","RCS_SIZE":"LARGE","PERIOD":"95.434","RA_OF_ASC_NODE":"286.2481","COUNTRY_CODE":"US","OBJECT_ID":"2022-086N","REV_AT_EPOCH":"2829","PERIAPSIS":"538.660","MEAN_MOTION_DOT":"0.00032296","SITE":"AFETR","EPHEMERIS_TYPE":"0","APOAPSIS":"540.522","DECAY_DATE":null,"TIME_SYSTEM":"UTC","OBJECT_TYPE":"PAYLOAD","TLE_LINE1":"1 53254U 22086N   23021.46854388  .00032296  00000-0  20352-2 0  9997","OBJECT_NAME":"STARLINK-4134"},{"ELEMENT_SET_NO":"999","GP_ID":"223599624","ECCENTRICITY":"0.00010900","MEAN_MOTION":"15.08830532","MEAN_ANOMALY":"274.9578","FILE":"3758147","CENTER_NAME":"EARTH","MEAN_MOTION_DDOT":"0.0000000000000","TLE_LINE2":"2 53255  53.2170 280.6625 0001090  85.1538 274.9578 15.08830532 28488","SEMIMAJOR_AXIS":"6917.909","EPOCH":"2023-01-22T17:05:51.087840","MEAN_ELEMENT_THEORY":"SGP4","INCLINATION":"53.2170","REF_FRAME":"TEME","LAUNCH_DATE":"2022-07-24","BSTAR":"-0.00013948000000","ARG_OF_PERICENTER":"85.1538","CLASSIFICATION_TYPE":"U","NORAD_CAT_ID":"53255","COUNTRY_CODE":"US","RA_OF_ASC_NODE":"280.6625","PERIOD":"95.438","PERIAPSIS":"539.020","OBJECT_ID":"2022-086P","REV_AT_EPOCH":"2848","RCS_SIZE":"LARGE","TLE_LINE1":"1 53255U 22086P   23022.71239685 -.00002506  00000-0 -13948-3 0  9991","OBJECT_NAME":"STARLINK-4142","SITE":"AFETR","MEAN_MOTION_DOT":"-0.00002506","APOAPSIS":"540.528","EPHEMERIS_TYPE":"0","TIME_SYSTEM":"UTC","OBJECT_TYPE":"PAYLOAD","DECAY_DATE":null},{"PERIAPSIS":"538.856","REV_AT_EPOCH":"2844","OBJECT_ID":"2022-086Q","COUNTRY_CODE":"US","PERIOD":"95.436","RA_OF_ASC_NODE":"281.8443","RCS_SIZE":"LARGE","OBJECT_NAME":"STARLINK-4147","TLE_LINE1":"1 53256U 22086Q   23022.45110562  .00010412  00000-0  67095-3 0  9990","OBJECT_TYPE":"PAYLOAD","TIME_SYSTEM":"UTC","DECAY_DATE":null,"EPHEMERIS_TYPE":"0","APOAPSIS":"540.525","SITE":"AFETR","MEAN_MOTION_DOT":"0.00010412","ELEMENT_SET_NO":"999","MEAN_ANOMALY":"288.5841","ECCENTRICITY":"0.00012060","GP_ID":"223592679","MEAN_MOTION":"15.08858051","FILE":"3757829","INCLINATION":"53.2121","TLE_LINE2":"2 53256  53.2121 281.8443 0001206  71.5282 288.5841 15.08858051 28446","EPOCH":"2023-01-22T10:49:35.525568","SEMIMAJOR_AXIS":"6917.825","MEAN_ELEMENT_THEORY":"SGP4","CENTER_NAME":"EARTH","MEAN_MOTION_DDOT":"0.0000000000000","NORAD_CAT_ID":"53256","CLASSIFICATION_TYPE":"U","REF_FRAME":"TEME","ARG_OF_PERICENTER":"71.5282","BSTAR":"0.00067095000000","LAUNCH_DATE":"2022-07-24"},{"MEAN_ANOMALY":"265.0158","MEAN_MOTION":"15.08838458","GP_ID":"223584552","ECCENTRICITY":"0.00012120","ELEMENT_SET_NO":"999","FILE":"3757474","MEAN_MOTION_DDOT":"0.0000000000000","CENTER_NAME":"EARTH","INCLINATION":"53.2177","MEAN_ELEMENT_THEORY":"SGP4","TLE_LINE2":"2 53257  53.2177 283.3746 0001212  95.0973 265.0158 15.08838458 28390","SEMIMAJOR_AXIS":"6917.885","EPOCH":"2023-01-22T02:31:28.397856","ARG_OF_PERICENTER":"95.0973","BSTAR":"-0.00012641000000","LAUNCH_DATE":"2022-07-24","REF_FRAME":"TEME","NORAD_CAT_ID":"53257","CLASSIFICATION_TYPE":"U","RA_OF_ASC_NODE":"283.3746","PERIOD":"95.438","COUNTRY_CODE":"US","REV_AT_EPOCH":"2839","OBJECT_ID":"2022-086R","PERIAPSIS":"538.912","RCS_SIZE":"LARGE","OBJECT_NAME":"STARLINK-4144","TLE_LINE1":"1 53257U 22086R   23022.10518979 -.00002299  00000-0 -12641-3 0  9990","EPHEMERIS_TYPE":"0","APOAPSIS":"540.589","SITE":"AFETR","MEAN_MOTION_DOT":"-0.00002299","DECAY_DATE":null,"OBJECT_TYPE":"PAYLOAD","TIME_SYSTEM":"UTC"},{"RCS_SIZE":"LARGE","REV_AT_EPOCH":"2848","OBJECT_ID":"2022-086S","PERIAPSIS":"538.953","RA_OF_ASC_NODE":"280.6791","PERIOD":"95.439","COUNTRY_CODE":"US","DECAY_DATE":null,"TIME_SYSTEM":"UTC","OBJECT_TYPE":"PAYLOAD","APOAPSIS":"540.673","EPHEMERIS_TYPE":"0","MEAN_MOTION_DOT":"-0.00003323","SITE":"AFETR","OBJECT_NAME":"STARLINK-4127","TLE_LINE1":"1 53258U 22086S   23022.70873470 -.00003323  00000-0 -19094-3 0  9995","FILE":"3758147","MEAN_ANOMALY":"266.4514","ECCENTRICITY":"0.00012430","GP_ID":"223599631","MEAN_MOTION":"15.08817837","ELEMENT_SET_NO":"999","CLASSIFICATION_TYPE":"U","NORAD_CAT_ID":"53258","BSTAR":"-0.00019094000000","ARG_OF_PERICENTER":"93.6620","LAUNCH_DATE":"2022-07-24","REF_FRAME":"TEME","INCLINATION":"53.2186","EPOCH":"2023-01-22T17:00:34.678080","TLE_LINE2":"2 53258  53.2186 280.6791 0001243  93.6620 266.4514 15.08817837 28487","SEMIMAJOR_AXIS":"6917.948","MEAN_ELEMENT_THEORY":"SGP4","MEAN_MOTION_DDOT":"0.0000000000000","CENTER_NAME":"EARTH"},{"TLE_LINE2":"2 53259  53.2152 283.3862 0001142  86.3540 273.7583 15.08863123 28394","MEAN_ELEMENT_THEORY":"SGP4","SEMIMAJOR_AXIS":"6917.810","EPOCH":"2023-01-22T02:27:32.781600","INCLINATION":"53.2152","CENTER_NAME":"EARTH","MEAN_MOTION_DDOT":"0.0000000000000","NORAD_CAT_ID":"53259","CLASSIFICATION_TYPE":"U","REF_FRAME":"TEME","LAUNCH_DATE":"2022-07-24","ARG_OF_PERICENTER":"86.3540","BSTAR":"0.00113300000000","ELEMENT_SET_NO":"999","GP_ID":"223584563","ECCENTRICITY":"0.00011420","MEAN_MOTION":"15.08863123","MEAN_ANOMALY":"273.7583","FILE":"3757474","TLE_LINE1":"1 53259U 22086T   23022.10246275  .00017801  00000-0  11330-2 0  9995","OBJECT_NAME":"STARLINK-4140","TIME_SYSTEM":"UTC","OBJECT_TYPE":"PAYLOAD","DECAY_DATE":null,"SITE":"AFETR","MEAN_MOTION_DOT":"0.00017801","EPHEMERIS_TYPE":"0","APOAPSIS":"540.465","PERIAPSIS":"538.885","OBJECT_ID":"2022-086T","REV_AT_EPOCH":"2839","COUNTRY_CODE":"US","RA_OF_ASC_NODE":"283.3862","PERIOD":"95.436","RCS_SIZE":"LARGE"},{"DECAY_DATE":null,"TIME_SYSTEM":"UTC","OBJECT_TYPE":"PAYLOAD","SITE":"AFETR","MEAN_MOTION_DOT":"0.00007955","EPHEMERIS_TYPE":"0","APOAPSIS":"540.982","TLE_LINE1":"1 53260U 22086U   23021.84391638  .00007955  00000-0  51716-3 0  9993","OBJECT_NAME":"STARLINK-4136","RCS_SIZE":"LARGE","OBJECT_ID":"2022-086U","REV_AT_EPOCH":"2835","PERIAPSIS":"538.432","RA_OF_ASC_NODE":"284.5489","PERIOD":"95.437","COUNTRY_CODE":"US","NORAD_CAT_ID":"53260","CLASSIFICATION_TYPE":"U","LAUNCH_DATE":"2022-07-24","BSTAR":"0.00051716000000","ARG_OF_PERICENTER":"82.5030","REF_FRAME":"TEME","EPOCH":"2023-01-21T20:15:14.375232","TLE_LINE2":"2 53260  53.2130 284.5489 0001843  82.5030 277.6171 15.08852702 28353","SEMIMAJOR_AXIS":"6917.842","MEAN_ELEMENT_THEORY":"SGP4","INCLINATION":"53.2130","MEAN_MOTION_DDOT":"0.0000000000000","CENTER_NAME":"EARTH","FILE":"3757474","ECCENTRICITY":"0.00018430","GP_ID":"223584927","MEAN_MOTION":"15.08852702","MEAN_ANOMALY":"277.6171","ELEMENT_SET_NO":"999"},{"MEAN_MOTION_DOT":"-0.00001633","SITE":"AFETR","EPHEMERIS_TYPE":"0","APOAPSIS":"540.538","DECAY_DATE":null,"TIME_SYSTEM":"UTC","OBJECT_TYPE":"PAYLOAD","TLE_LINE1":"1 53261U 22086V   23022.75655599 -.00001633  00000-0 -84555-4 0  9991","OBJECT_NAME":"STARLINK-4062","RCS_SIZE":"LARGE","RA_OF_ASC_NODE":"280.4566","PERIOD":"95.438","COUNTRY_CODE":"US","OBJECT_ID":"2022-086V","REV_AT_EPOCH":"2849","PERIAPSIS":"538.965","LAUNCH_DATE":"2022-07-24","BSTAR":"-0.00008455500000","ARG_OF_PERICENTER":"106.9655","REF_FRAME":"TEME","CLASSIFICATION_TYPE":"U","NORAD_CAT_ID":"53261","MEAN_MOTION_DDOT":"0.0000000000000","CENTER_NAME":"EARTH","EPOCH":"2023-01-22T18:09:26.437536","TLE_LINE2":"2 53261  53.2168 280.4566 0001137 106.9655 253.1462 15.08837919 28496","SEMIMAJOR_AXIS":"6917.887","MEAN_ELEMENT_THEORY":"SGP4","INCLINATION":"53.2168","FILE":"3758147","ECCENTRICITY":"0.00011370","GP_ID":"223599282","MEAN_MOTION":"15.08837919","MEAN_ANOMALY":"253.1462","ELEMENT_SET_NO":"999"},{"OBJECT_TYPE":"PAYLOAD","TIME_SYSTEM":"UTC","DECAY_DATE":null,"APOAPSIS":"541.336","EPHEMERIS_TYPE":"0","SITE":"AFETR","MEAN_MOTION_DOT":"0.00006451","OBJECT_NAME":"STARLINK-4085","TLE_LINE1":"1 53262U 22086W   23022.43271217  .00006451  00000-0  42293-3 0  9991","RCS_SIZE":"LARGE","PERIAPSIS":"538.094","REV_AT_EPOCH":"2844","OBJECT_ID":"2022-086W","COUNTRY_CODE":"US","PERIOD":"95.437","RA_OF_ASC_NODE":"281.9067","NORAD_CAT_ID":"53262","CLASSIFICATION_TYPE":"U","REF_FRAME":"TEME","BSTAR":"0.00042293000000","ARG_OF_PERICENTER":"77.1186","LAUNCH_DATE":"2022-07-24","INCLINATION":"53.2195","EPOCH":"2023-01-22T10:23:06.331488","TLE_LINE2":"2 53262  53.2195 281.9067 0002343  77.1186 283.0068 15.08849905 28444","SEMIMAJOR_AXIS":"6917.850","MEAN_ELEMENT_THEORY":"SGP4","CENTER_NAME":"EARTH","MEAN_MOTION_DDOT":"0.0000000000000","FILE":"3757830","ELEMENT_SET_NO":"999","MEAN_ANOMALY":"283.0068","GP_ID":"223592693","ECCENTRICITY":"0.00023430","MEAN_MOTION":"15.08849905"},{"OBJECT_ID":"2022-086X","REV_AT_EPOCH":"2844","PERIAPSIS":"539.251","PERIOD":"95.437","RA_OF_ASC_NODE":"281.9619","COUNTRY_CODE":"US","RCS_SIZE":"LARGE","TLE_LINE1":"1 53263U 22086X   23022.42166394 -.00000417  00000-0 -81550-5 0  9999","OBJECT_NAME":"STARLINK-4130","DECAY_DATE":null,"OBJECT_TYPE":"PAYLOAD","TIME_SYSTEM":"UTC","SITE":"AFETR","MEAN_MOTION_DOT":"-0.00000417","APOAPSIS":"540.200","EPHEMERIS_TYPE":"0","ECCENTRICITY":"0.00006860","GP_ID":"223592475","MEAN_MOTION":"15.08846592","MEAN_ANOMALY":"152.3034","ELEMENT_SET_NO":"999","FILE":"3757830","MEAN_ELEMENT_THEORY":"SGP4","TLE_LINE2":"2 53263  53.2165 281.9619 0000686 207.7921 152.3034 15.08846592 28441","SEMIMAJOR_AXIS":"6917.860","EPOCH":"2023-01-22T10:07:11.764416","INCLINATION":"53.2165","MEAN_MOTION_DDOT":"0.0000000000000","CENTER_NAME":"EARTH","CLASSIFICATION_TYPE":"U","NORAD_CAT_ID":"53263","LAUNCH_DATE":"2022-07-24","ARG_OF_PERICENTER":"207.7921","BSTAR":"-0.00000815500000","REF_FRAME":"TEME"}];
